IRIDIUM 116             
1 43072U 17083C   25071.62647181  .00000047  00000+0  96288-5 0  9993
2 43072  86.4024 154.9578 0001931  96.7283 263.4132 14.34217559378011
IRIDIUM 130             
1 43073U 17083D   25071.59475757  .00000152  00000+0  47099-4 0  9990
2 43073  86.4033 155.2011 0002050  90.8558 269.2873 14.34218898377956
IRIDIUM 151             
1 43074U 17083E   25071.49961980  .00000515  00000+0  17699-3 0  9993
2 43074  86.4027 155.0583 0002162  99.1488 260.9952 14.34219079377969
IRIDIUM 134             
1 43075U 17083F   25071.46790803  .00000043  00000+0  83680-5 0  9996
2 43075  86.4026 155.0731 0002090  90.4218 269.7217 14.34217248377922
IRIDIUM 137             
1 43076U 17083G   25071.62012826  .00000006  00000+0 -50245-5 0  9998
2 43076  86.4029 155.0923 0001572 107.4854 252.6513 14.34216479378014
IRIDIUM 141             
1 43077U 17083H   25071.61381267  .00000714  00000+0  24779-3 0  9992
2 43077  86.4024 154.9525 0002494  97.4986 262.6493 14.34219833378019
IRIDIUM 153             
1 43078U 17083J   25071.56596662  .00000046  00000+0  94039-5 0  9990
2 43078  86.3957 123.4794 0002804  96.7336 263.4179 14.34218005379111
IRIDIUM 131             
1 43079U 17083K   25071.60110030  .00000068  00000+0  17077-4 0  9997
2 43079  86.4027 155.1127 0002220 103.6475 256.4968 14.34216867377948
